stk.v.4.2

BEGIN Ephemeris

    BlockingFactor		20

    InterpolationOrder 		5


NumberOfEphemerisPoints 		1956

ScenarioEpoch 		1 Jun 2001 18:00:00.000000000

CentralBody 		 Earth

CoordinateSystem 		 Fixed

EphemerisTimePosVel

2.02843000000000e+003 2.17617018860000e+006 -4.35440286370000e+006 4.93035664330000e+006 -4.25168820000000e+003 -2.97089740000000e+003 -4.11985380000000e+003
2.02943000000000e+003 2.17152562180000e+006 -4.35671178670000e+006 4.92623383280000e+006 -4.25523100000000e+003 -2.96583680000000e+003 -4.12576750000000e+003
2.03043000000000e+003 2.16687813000000e+006 -4.35901483860000e+006 4.92210510730000e+006 -4.25877310000000e+003 -2.96076650000000e+003 -4.13168390000000e+003
2.03143000000000e+003 2.16222771630000e+006 -4.36131200940000e+006 4.91797046420000e+006 -4.26231430000000e+003 -2.95568650000000e+003 -4.13760280000000e+003
2.03243000000000e+003 2.15757438380000e+006 -4.36360328920000e+006 4.91382990080000e+006 -4.26585460000000e+003 -2.95059690000000e+003 -4.14352440000000e+003
2.03343000000000e+003 2.15291813560000e+006 -4.36588866830000e+006 4.90968341460000e+006 -4.26939410000000e+003 -2.94549750000000e+003 -4.14944850000000e+003
2.03443000000000e+003 2.14825897470000e+006 -4.36816813670000e+006 4.90553100290000e+006 -4.27293270000000e+003 -2.94038850000000e+003 -4.15537530000000e+003
2.03543000000000e+003 2.14359690450000e+006 -4.37044168450000e+006 4.90137266310000e+006 -4.27647050000000e+003 -2.93526970000000e+003 -4.16130470000000e+003
2.03643000000000e+003 2.13893192790000e+006 -4.37270930170000e+006 4.89720839260000e+006 -4.28000750000000e+003 -2.93014110000000e+003 -4.16723670000000e+003
2.03743000000000e+003 2.13426404800000e+006 -4.37497097850000e+006 4.89303818880000e+006 -4.28354350000000e+003 -2.92500270000000e+003 -4.17317130000000e+003
2.03843000000000e+003 2.12959326820000e+006 -4.37722670480000e+006 4.88886204900000e+006 -4.28707870000000e+003 -2.91985460000000e+003 -4.17910860000000e+003
2.03943000000000e+003 2.12491959140000e+006 -4.37947647060000e+006 4.88467997070000e+006 -4.29061300000000e+003 -2.91469660000000e+003 -4.18504850000000e+003
2.04043000000000e+003 2.12024302100000e+006 -4.38172026600000e+006 4.88049195120000e+006 -4.29414650000000e+003 -2.90952870000000e+003 -4.19099100000000e+003
2.04143000000000e+003 2.11556356000000e+006 -4.38395808080000e+006 4.87629798790000e+006 -4.29767900000000e+003 -2.90435100000000e+003 -4.19693610000000e+003
2.04243000000000e+003 2.11088121160000e+006 -4.38618990520000e+006 4.87209807820000e+006 -4.30121070000000e+003 -2.89916340000000e+003 -4.20288390000000e+003
2.04343000000000e+003 2.10619597910000e+006 -4.38841572880000e+006 4.86789221930000e+006 -4.30474150000000e+003 -2.89396580000000e+003 -4.20883430000000e+003
2.04443000000000e+003 2.10150786560000e+006 -4.39063554180000e+006 4.86368040880000e+006 -4.30827140000000e+003 -2.88875830000000e+003 -4.21478730000000e+003
2.04543000000000e+003 2.09681687450000e+006 -4.39284933390000e+006 4.85946264380000e+006 -4.31180040000000e+003 -2.88354090000000e+003 -4.22074300000000e+003
2.04643000000000e+003 2.09212300880000e+006 -4.39505709510000e+006 4.85523892190000e+006 -4.31532840000000e+003 -2.87831350000000e+003 -4.22670130000000e+003
2.04743000000000e+003 2.08742627180000e+006 -4.39725881510000e+006 4.85100924030000e+006 -4.31885560000000e+003 -2.87307600000000e+003 -4.23266230000000e+003
2.04843000000000e+003 2.08272666690000e+006 -4.39945448380000e+006 4.84677359640000e+006 -4.32238190000000e+003 -2.86782860000000e+003 -4.23862590000000e+003
2.04943000000000e+003 2.07802419720000e+006 -4.40164409100000e+006 4.84253198760000e+006 -4.32590720000000e+003 -2.86257110000000e+003 -4.24459220000000e+003
2.05043000000000e+003 2.07331886600000e+006 -4.40382762660000e+006 4.83828441120000e+006 -4.32943160000000e+003 -2.85730350000000e+003 -4.25056110000000e+003
2.05143000000000e+003 2.06861067660000e+006 -4.40600508010000e+006 4.83403086450000e+006 -4.33295510000000e+003 -2.85202590000000e+003 -4.25653270000000e+003
2.05243000000000e+003 2.06389963230000e+006 -4.40817644150000e+006 4.82977134490000e+006 -4.33647760000000e+003 -2.84673810000000e+003 -4.26250690000000e+003
2.05343000000000e+003 2.05918573640000e+006 -4.41034170040000e+006 4.82550584970000e+006 -4.33999920000000e+003 -2.84144020000000e+003 -4.26848380000000e+003
2.05443000000000e+003 2.05446899220000e+006 -4.41250084650000e+006 4.82123437630000e+006 -4.34351990000000e+003 -2.83613210000000e+003 -4.27446340000000e+003
2.05543000000000e+003 2.04974940290000e+006 -4.41465386950000e+006 4.81695692200000e+006 -4.34703960000000e+003 -2.83081380000000e+003 -4.28044560000000e+003
2.05643000000000e+003 2.04502697200000e+006 -4.41680075900000e+006 4.81267348420000e+006 -4.35055840000000e+003 -2.82548540000000e+003 -4.28643060000000e+003
2.05743000000000e+003 2.04030170280000e+006 -4.41894150470000e+006 4.80838406000000e+006 -4.35407620000000e+003 -2.82014670000000e+003 -4.29241810000000e+003
2.05843000000000e+003 2.03557359860000e+006 -4.42107609630000e+006 4.80408864700000e+006 -4.35759310000000e+003 -2.81479770000000e+003 -4.29840840000000e+003
2.05943000000000e+003 2.03084266280000e+006 -4.42320452330000e+006 4.79978724240000e+006 -4.36110900000000e+003 -2.80943850000000e+003 -4.30440130000000e+003
2.06043000000000e+003 2.02610889880000e+006 -4.42532677520000e+006 4.79547984350000e+006 -4.36462390000000e+003 -2.80406900000000e+003 -4.31039690000000e+003
2.06143000000000e+003 2.02137230990000e+006 -4.42744284170000e+006 4.79116644770000e+006 -4.36813780000000e+003 -2.79868920000000e+003 -4.31639520000000e+003
2.06243000000000e+003 2.01663289960000e+006 -4.42955271220000e+006 4.78684705220000e+006 -4.37165080000000e+003 -2.79329900000000e+003 -4.32239620000000e+003
2.06343000000000e+003 2.01189067120000e+006 -4.43165637640000e+006 4.78252165450000e+006 -4.37516270000000e+003 -2.78789850000000e+003 -4.32839980000000e+003
2.06443000000000e+003 2.00714562810000e+006 -4.43375382360000e+006 4.77819025170000e+006 -4.37867370000000e+003 -2.78248760000000e+003 -4.33440620000000e+003
2.06543000000000e+003 2.00239777380000e+006 -4.43584504330000e+006 4.77385284120000e+006 -4.38218370000000e+003 -2.77706620000000e+003 -4.34041520000000e+003
2.06643000000000e+003 1.99764711180000e+006 -4.43793002500000e+006 4.76950942040000e+006 -4.38569260000000e+003 -2.77163450000000e+003 -4.34642690000000e+003
2.06743000000000e+003 1.99289364540000e+006 -4.44000875820000e+006 4.76515998640000e+006 -4.38920060000000e+003 -2.76619220000000e+003 -4.35244140000000e+003
2.06843000000000e+003 1.98813737810000e+006 -4.44208123210000e+006 4.76080453670000e+006 -4.39270760000000e+003 -2.76073950000000e+003 -4.35845850000000e+003
2.06943000000000e+003 1.98337831340000e+006 -4.44414743620000e+006 4.75644306860000e+006 -4.39621350000000e+003 -2.75527630000000e+003 -4.36447830000000e+003
2.07043000000000e+003 1.97861645480000e+006 -4.44620735990000e+006 4.75207557920000e+006 -4.39971840000000e+003 -2.74980260000000e+003 -4.37050080000000e+003
2.07143000000000e+003 1.97385180570000e+006 -4.44826099250000e+006 4.74770206600000e+006 -4.40322230000000e+003 -2.74431830000000e+003 -4.37652610000000e+003
2.07243000000000e+003 1.96908436970000e+006 -4.45030832320000e+006 4.74332252610000e+006 -4.40672520000000e+003 -2.73882340000000e+003 -4.38255400000000e+003
2.07343000000000e+003 1.96431415020000e+006 -4.45234934150000e+006 4.73893695700000e+006 -4.41022700000000e+003 -2.73331790000000e+003 -4.38858470000000e+003
2.07443000000000e+003 1.95954115090000e+006 -4.45438403650000e+006 4.73454535590000e+006 -4.41372770000000e+003 -2.72780180000000e+003 -4.39461800000000e+003
2.07543000000000e+003 1.95476537520000e+006 -4.45641239750000e+006 4.73014772000000e+006 -4.41722750000000e+003 -2.72227510000000e+003 -4.40065410000000e+003
2.07643000000000e+003 1.94998682660000e+006 -4.45843441380000e+006 4.72574404670000e+006 -4.42072610000000e+003 -2.71673770000000e+003 -4.40669290000000e+003
2.07743000000000e+003 1.94520550880000e+006 -4.46045007450000e+006 4.72133433330000e+006 -4.42422370000000e+003 -2.71118960000000e+003 -4.41273440000000e+003
2.07843000000000e+003 1.94042142530000e+006 -4.46245936890000e+006 4.71691857700000e+006 -4.42772030000000e+003 -2.70563070000000e+003 -4.41877870000000e+003
2.07943000000000e+003 1.93563457970000e+006 -4.46446228600000e+006 4.71249677500000e+006 -4.43121570000000e+003 -2.70006110000000e+003 -4.42482560000000e+003
2.08043000000000e+003 1.93084497560000e+006 -4.46645881500000e+006 4.70806892480000e+006 -4.43471010000000e+003 -2.69448080000000e+003 -4.43087530000000e+003
2.08143000000000e+003 1.92605261650000e+006 -4.46844894510000e+006 4.70363502350000e+006 -4.43820340000000e+003 -2.68888960000000e+003 -4.43692770000000e+003
2.08243000000000e+003 1.92125750620000e+006 -4.47043266530000e+006 4.69919506840000e+006 -4.44169560000000e+003 -2.68328770000000e+003 -4.44298290000000e+003
2.08343000000000e+003 1.91645964810000e+006 -4.47240996470000e+006 4.69474905680000e+006 -4.44518670000000e+003 -2.67767490000000e+003 -4.44904080000000e+003
2.08443000000000e+003 1.91165904610000e+006 -4.47438083230000e+006 4.69029698600000e+006 -4.44867680000000e+003 -2.67205120000000e+003 -4.45510140000000e+003
2.08543000000000e+003 1.90685570360000e+006 -4.47634525720000e+006 4.68583885320000e+006 -4.45216570000000e+003 -2.66641660000000e+003 -4.46116470000000e+003
2.08643000000000e+003 1.90204962440000e+006 -4.47830322830000e+006 4.68137465560000e+006 -4.45565350000000e+003 -2.66077110000000e+003 -4.46723080000000e+003
2.08743000000000e+003 1.89724081220000e+006 -4.48025473460000e+006 4.67690439060000e+006 -4.45914020000000e+003 -2.65511470000000e+003 -4.47329960000000e+003
2.08843000000000e+003 1.89242927060000e+006 -4.48219976520000e+006 4.67242805540000e+006 -4.46262570000000e+003 -2.64944730000000e+003 -4.47937120000000e+003
END Ephemeris
